{"type": "FeatureCollection", "features": [ {"type": "Feature", "properties": {"norad_id": 38068, "name": "COSMOS 2251 DEB", "group": "cosmos-2251-debris", "lat": -34.23846586189334, "lon": -56.56314881696582, "alt_km": 774.7278850958037, "timestamp": "2025-12-09T05:43:21.124708+00:00", "meta": {"OBJECT_NAME": "COSMOS 2251 DEB", "OBJECT_ID": "1993-036BSA", "EPOCH": "2025-11-26T00:12:22.263264", "MEAN_MOTION": 14.35960004, "ECCENTRICITY": 0.00240903, "INCLINATION": 74.0219, "RA_OF_ASC_NODE": 338.9788, "ARG_OF_PERICENTER": 72.1007, "MEAN_ANOMALY": 288.2769, "EPHEMERIS_TYPE": 0, "CLASSIFICATION_TYPE": "U", "NORAD_CAT_ID": 38068, "ELEMENT_SET_NO": 999, "REV_AT_EPOCH": 66406, "BSTAR": 0.00028750999, "MEAN_MOTION_DOT": 8.11e-06, "MEAN_MOTION_DDOT": 0}, "tle": {"line1": "1 38068U 93036BSA 25330.00859101  .00000811  00000+0  28751-3 0  9998", "line2": "2 38068  74.0219 338.9788 0024090  72.1007 288.2769 14.35960004664064"}}, "geometry": {"type": "Point", "coordinates": [-56.56314881696582, -34.23846586189334]}}, {"type": "Feature", "properties": {"norad_id": 38197, "name": "COSMOS 2251 DEB", "group": "cosmos-2251-debris", "lat": -14.943564039351774, "lon": -171.66708914501643, "alt_km": 591.9052197822366, "timestamp": "2025-12-09T05:43:21.124719+00:00", "meta": {"OBJECT_NAME": "COSMOS 2251 DEB", "OBJECT_ID": "1993-036BSM", "EPOCH": "2025-12-08T19:03:08.419680", "MEAN_MOTION": 14.73659772, "ECCENTRICITY": 0.0127211, "INCLINATION": 73.9375, "RA_OF_ASC_NODE": 4.7948, "ARG_OF_PERICENTER": 243.2589, "MEAN_ANOMALY": 115.552, "EPHEMERIS_TYPE": 0, "CLASSIFICATION_TYPE": "U", "NORAD_CAT_ID": 38197, "ELEMENT_SET_NO": 999, "REV_AT_EPOCH": 85697, "BSTAR": 0.0065047, "MEAN_MOTION_DOT": 0.00048579, "MEAN_MOTION_DDOT": 0}, "tle": {"line1": "1 38197U 93036BSM 25342.79384745  .00048579  00000+0  65047-2 0  9998", "line2": "2 38197  73.9375   4.7948 0127211 243.2589 115.5520 14.73659772856978"}}, "geometry": {"type": "Point", "coordinates": [-171.66708914501643, -14.943564039351774]}}, {"type": "Feature", "properties": {"norad_id": 38199, "name": "COSMOS 2251 DEB", "group": "cosmos-2251-debris", "lat": -72.97788453966899, "lon": -2.09365429218666, "alt_km": 965.319538523263, "timestamp": "2025-12-09T05:43:21.124729+00:00", "meta": {"OBJECT_NAME": "COSMOS 2251 DEB", "OBJECT_ID": "1993-036BSP", "EPOCH": "2025-12-07T13:39:10.297152", "MEAN_MOTION": 13.64784951, "ECCENTRICITY": 0.03694158, "INCLINATION": 73.9558, "RA_OF_ASC_NODE": 70.6839, "ARG_OF_PERICENTER": 358.2142, "MEAN_ANOMALY": 1.7624, "EPHEMERIS_TYPE": 0, "CLASSIFICATION_TYPE": "U", "NORAD_CAT_ID": 38199, "ELEMENT_SET_NO": 999, "REV_AT_EPOCH": 60951, "BSTAR": 0.00073631881, "MEAN_MOTION_DOT": 9.22e-06, "MEAN_MOTION_DDOT": 0}, "tle": {"line1": "1 38199U 93036BSP 25341.56886918  .00000922  00000+0  73632-3 0  9993", "line2": "2 38199  73.9558  70.6839 0369415 358.2142   1.7624 13.64784951609514"}}, "geometry": {"type": "Point", "coordinates": [-2.09365429218666, -72.97788453966899]}}, {"type": "Feature", "properties": {"norad_id": 38208, "name": "COSMOS 2251 DEB", "group": "cosmos-2251-debris", "lat": 20.07829339523061, "lon": 91.88046662016005, "alt_km": 619.2733332422504, "timestamp": "2025-12-09T05:43:21.124740+00:00", "meta": {"OBJECT_NAME": "COSMOS 2251 DEB", "OBJECT_ID": "1993-036BSY", "EPOCH": "2025-12-08T01:17:29.951232", "MEAN_MOTION": 14.83590677, "ECCENTRICITY": 0.00029301, "INCLINATION": 74.0062, "RA_OF_ASC_NODE": 88.2125, "ARG_OF_PERICENTER": 171.0279, "MEAN_ANOMALY": 5.5691, "EPHEMERIS_TYPE": 0, "CLASSIFICATION_TYPE": "U", "NORAD_CAT_ID": 38208, "ELEMENT_SET_NO": 999, "REV_AT_EPOCH": 71089, "BSTAR": 0.0032427711, "MEAN_MOTION_DOT": 0.00026811, "MEAN_MOTION_DDOT": 0}, "tle": {"line1": "1 38208U 93036BSY 25342.05381888  .00026811  00000+0  32428-2 0  9997", "line2": "2 38208  74.0062  88.2125 0002930 171.0279   5.5691 14.83590677710890"}}, "geometry": {"type": "Point", "coordinates": [91.88046662016005, 20.07829339523061]}}, {"type": "Feature", "properties": {"norad_id": 38212, "name": "COSMOS 2251 DEB", "group": "cosmos-2251-debris", "lat": 45.07204696836677, "lon": 100.1244979957496, "alt_km": 647.7077181485593, "timestamp": "2025-12-09T05:43:21.124750+00:00", "meta": {"OBJECT_NAME": "COSMOS 2251 DEB", "OBJECT_ID": "1993-036BTC", "EPOCH": "2025-12-08T13:15:26.464032", "MEAN_MOTION": 14.77639869, "ECCENTRICITY": 0.0092747, "INCLINATION": 74.0522, "RA_OF_ASC_NODE": 84.8103, "ARG_OF_PERICENTER": 153.0073, "MEAN_ANOMALY": 207.5971, "EPHEMERIS_TYPE": 0, "CLASSIFICATION_TYPE": "U", "NORAD_CAT_ID": 38212, "ELEMENT_SET_NO": 999, "REV_AT_EPOCH": 81248, "BSTAR": 0.00080388, "MEAN_MOTION_DOT": 6.149e-05, "MEAN_MOTION_DDOT": 0}, "tle": {"line1": "1 38212U 93036BTC 25342.55238963  .00006149  00000+0  80388-3 0  9993", "line2": "2 38212  74.0522  84.8103 0092747 153.0073 207.5971 14.77639869812484"}}, "geometry": {"type": "Point", "coordinates": [100.1244979957496, 45.07204696836677]}}, {"type": "Feature", "properties": {"norad_id": 38220, "name": "COSMOS 2251 DEB", "group": "cosmos-2251-debris", "lat": 6.935175625984379, "lon": 77.33961073924804, "alt_km": 590.1282085482098, "timestamp": "2025-12-09T05:43:21.124761+00:00", "meta": {"OBJECT_NAME": "COSMOS 2251 DEB", "OBJECT_ID": "1993-036BTL", "EPOCH": "2025-12-07T23:07:29.587296", "MEAN_MOTION": 14.92459164, "ECCENTRICITY": 0.00038945, "INCLINATION": 74.0157, "RA_OF_ASC_NODE": 77.9045, "ARG_OF_PERICENTER": 65.821, "MEAN_ANOMALY": 294.338, "EPHEMERIS_TYPE": 0, "CLASSIFICATION_TYPE": "U", "NORAD_CAT_ID": 38220, "ELEMENT_SET_NO": 999, "REV_AT_EPOCH": 71299, "BSTAR": 0.0040597904, "MEAN_MOTION_DOT": 0.00041864, "MEAN_MOTION_DDOT": 0}, "tle": {"line1": "1 38220U 93036BTL 25341.96353689  .00041864  00000+0  40598-2 0  9990", "line2": "2 38220  74.0157  77.9045 0003894  65.8210 294.3380 14.92459164712991"}}, "geometry": {"type": "Point", "coordinates": [77.33961073924804, 6.935175625984379]}}, {"type": "Feature", "properties": {"norad_id": 38479, "name": "COSMOS 2251 DEB", "group": "cosmos-2251-debris", "lat": 69.51331511914569, "lon": -39.39837177179647, "alt_km": 814.4628887910094, "timestamp": "2025-12-09T05:43:21.124771+00:00", "meta": {"OBJECT_NAME": "COSMOS 2251 DEB", "OBJECT_ID": "1993-036BTP", "EPOCH": "2025-12-07T08:59:39.442848", "MEAN_MOTION": 14.38206673, "ECCENTRICITY": 0.00841346, "INCLINATION": 74.0062, "RA_OF_ASC_NODE": 194.1851, "ARG_OF_PERICENTER": 304.3945, "MEAN_ANOMALY": 232.7575, "EPHEMERIS_TYPE": 0, "CLASSIFICATION_TYPE": "U", "NORAD_CAT_ID": 38479, "ELEMENT_SET_NO": 999, "REV_AT_EPOCH": 64610, "BSTAR": 0.0026377804, "MEAN_MOTION_DOT": 8.33e-05, "MEAN_MOTION_DDOT": 0}, "tle": {"line1": "1 38479U 93036BTP 25341.37476207  .00008330  00000+0  26378-2 0  9994", "line2": "2 38479  74.0062 194.1851 0084134 304.3945 232.7575 14.38206673646107"}}, "geometry": {"type": "Point", "coordinates": [-39.39837177179647, 69.51331511914569]}}, {"type": "Feature", "properties": {"norad_id": 38481, "name": "COSMOS 2251 DEB", "group": "cosmos-2251-debris", "lat": -11.254177083537035, "lon": -163.10226632700608, "alt_km": 1006.0425914449161, "timestamp": "2025-12-09T05:43:21.124782+00:00", "meta": {"OBJECT_NAME": "COSMOS 2251 DEB", "OBJECT_ID": "1993-036BTR", "EPOCH": "2025-12-07T20:04:54.972768", "MEAN_MOTION": 13.94787579, "ECCENTRICITY": 0.0233704, "INCLINATION": 73.9329, "RA_OF_ASC_NODE": 16.0313, "ARG_OF_PERICENTER": 317.436, "MEAN_ANOMALY": 40.8857, "EPHEMERIS_TYPE": 0, "CLASSIFICATION_TYPE": "U", "NORAD_CAT_ID": 38481, "ELEMENT_SET_NO": 999, "REV_AT_EPOCH": 58992, "BSTAR": 0.0025212109, "MEAN_MOTION_DOT": 4.22e-05, "MEAN_MOTION_DDOT": 0}, "tle": {"line1": "1 38481U 93036BTR 25341.83674737  .00004220  00000+0  25212-2 0  9996", "line2": "2 38481  73.9329  16.0313 0233704 317.4360  40.8857 13.94787579589921"}}, "geometry": {"type": "Point", "coordinates": [-163.10226632700608, -11.254177083537035]}}, {"type": "Feature", "properties": {"norad_id": 38483, "name": "COSMOS 2251 DEB", "group": "cosmos-2251-debris", "lat": -47.67037311581667, "lon": -143.94994546377083, "alt_km": 822.9278006731884, "timestamp": "2025-12-09T05:43:21.124792+00:00", "meta": {"OBJECT_NAME": "COSMOS 2251 DEB", "OBJECT_ID": "1993-036BTT", "EPOCH": "2025-12-05T09:54:51.547104", "MEAN_MOTION": 14.28743518, "ECCENTRICITY": 0.01115299, "INCLINATION": 74.2614, "RA_OF_ASC_NODE": 24.8593, "ARG_OF_PERICENTER": 132.5252, "MEAN_ANOMALY": 228.5384, "EPHEMERIS_TYPE": 0, "CLASSIFICATION_TYPE": "U", "NORAD_CAT_ID": 38483, "ELEMENT_SET_NO": 999, "REV_AT_EPOCH": 63373, "BSTAR": 0.0016991918, "MEAN_MOTION_DOT": 4.552e-05, "MEAN_MOTION_DDOT": 0}, "tle": {"line1": "1 38483U 93036BTT 25339.41309661  .00004552  00000+0  16992-2 0  9993", "line2": "2 38483  74.2614  24.8593 0111529 132.5252 228.5384 14.28743518633739"}}, "geometry": {"type": "Point", "coordinates": [-143.94994546377083, -47.67037311581667]}}, {"type": "Feature", "properties": {"norad_id": 38486, "name": "COSMOS 2251 DEB", "group": "cosmos-2251-debris", "lat": 10.120815382649969, "lon": -145.3332421992868, "alt_km": 631.9547067898839, "timestamp": "2025-12-09T05:43:21.124803+00:00", "meta": {"OBJECT_NAME": "COSMOS 2251 DEB", "OBJECT_ID": "1993-036BTW", "EPOCH": "2025-12-06T22:20:18.224736", "MEAN_MOTION": 14.72994034, "ECCENTRICITY": 0.00300466, "INCLINATION": 73.9399, "RA_OF_ASC_NODE": 216.2395, "ARG_OF_PERICENTER": 1.0805, "MEAN_ANOMALY": 16.9545, "EPHEMERIS_TYPE": 0, "CLASSIFICATION_TYPE": "U", "NORAD_CAT_ID": 38486, "ELEMENT_SET_NO": 999, "REV_AT_EPOCH": 75349, "BSTAR": 0.0040836138, "MEAN_MOTION_DOT": 0.00026487, "MEAN_MOTION_DDOT": 0}, "tle": {"line1": "1 38486U 93036BTW 25340.93076649  .00026487  00000+0  40836-2 0  9997", "line2": "2 38486  73.9399 216.2395 0030046   1.0805  16.9545 14.72994034753497"}}, "geometry": {"type": "Point", "coordinates": [-145.3332421992868, 10.120815382649969]}}]}